NORAD_CAT_ID,OBJECT_NAME,OBJECT_TYPE,EPOCH,MEAN_MOTION,ECCENTRICITY,INCLINATION,RA_OF_ASC_NODE,ARG_OF_PERICENTER,MEAN_ANOMALY,BSTAR,MEAN_MOTION_DOT,MEAN_MOTION_DDOT,TLE_LINE0,TLE_LINE1,TLE_LINE2,SEMIMAJOR_AXIS,PERIOD,APOGEE,PERIGEE,DECAYED
56784.0,STARLINK-6354,PAYLOAD,2024-05-11 15:25:01,14.98382128,0.0002803,70.0012,206.4265,258.8215,101.2629,0.00051439,6.058e-05,0.0,0 STARLINK-6354,1 56784U 23078T   24132.64237306  .00006058  00000-0  51439-3 0  9997,2 56784  70.0012 206.4265 0002803 258.8215 101.2629 14.98382128 53512,6950.032,96.104,573.845,569.949,0.0
56784.0,STARLINK-6354,PAYLOAD,2024-05-11 21:49:40,14.98292702,0.0002293,70.0011,205.7542,271.3889,88.7007,-0.00048128,-5.825e-05,0.0,0 STARLINK-6354,1 56784U 23078T   24132.90949590 -.00005825  00000-0 -48128-3 0  9995,2 56784  70.0011 205.7542 0002293 271.3889  88.7007 14.98292702 53293,6950.308,96.109,573.767,570.58,0.0
56784.0,STARLINK-6354,PAYLOAD,2024-05-12 12:14:55,14.98275448,0.0002587,70.0006,204.2381,272.5587,87.5276,-0.00065595,-7.9e-05,0.0,0 STARLINK-6354,1 56784U 23078T   24133.51036603 -.00007900  00000-0 -65595-3 0  9998,2 56784  70.0006 204.2381 0002587 272.5587  87.5276 14.98275448 53648,6950.362,96.11,574.025,570.429,0.0
56784.0,STARLINK-6354,PAYLOAD,2024-05-12 13:51:03,14.98274889,0.0002576,70.0006,204.0699,272.6978,87.3886,-0.00065037,-7.833e-05,0.0,0 STARLINK-6354,1 56784U 23078T   24133.57712831 -.00007833  00000-0 -65037-3 0  9994,2 56784  70.0006 204.0699 0002576 272.6978  87.3886 14.98274889 53396,6950.363,96.111,574.019,570.438,0.0
56784.0,STARLINK-6354,PAYLOAD,2024-05-12 21:51:43,14.98300857,0.0002328,70.0024,203.225,291.056,69.035,-0.00036958,-4.496e-05,0.0,0 STARLINK-6354,1 56784U 23078T   24133.91091444 -.00004496  00000-0 -36958-3 0  9994,2 56784  70.0024 203.2250 0002328 291.0560  69.0350 14.98300857 53441,6950.283,96.109,573.766,570.53,0.0
56784.0,STARLINK-6354,PAYLOAD,2024-05-13 12:16:53,14.98340166,0.0002561,70.0003,201.7136,277.8792,82.2076,-0.00019548,-2.425e-05,0.0,0 STARLINK-6354,1 56784U 23078T   24134.51172876 -.00002425  00000-0 -19548-3 0  9996,2 56784  70.0003 201.7136 0002561 277.8792  82.2076 14.98340166 53799,6950.161,96.106,573.806,570.247,0.0
56784.0,STARLINK-6354,PAYLOAD,2024-05-14 04:18:14,14.98301426,0.0002474,70.0002,200.0303,281.4524,78.6357,0.00067743,7.993e-05,0.0,0 STARLINK-6354,1 56784U 23078T   24135.17933168  .00007993  00000-0  67743-3 0  9991,2 56784  70.0002 200.0303 0002474 281.4524  78.6357 14.98301426 53891,6950.281,96.109,573.866,570.427,0.0
56784.0,STARLINK-6354,PAYLOAD,2024-05-14 12:18:54,14.98309255,0.000253,69.9999,199.1883,281.3179,78.7695,0.00068282,8.059e-05,0.0,0 STARLINK-6354,1 56784U 23078T   24135.51313137  .00008059  00000-0  68282-3 0  9990,2 56784  69.9999 199.1883 0002530 281.3179  78.7695 14.98309255 53683,6950.257,96.108,573.88,570.364,0.0
56784.0,STARLINK-6354,PAYLOAD,2024-05-14 21:55:43,14.98311898,0.0002394,69.9999,198.1771,288.7127,71.3773,0.00071396,8.432e-05,0.0,0 STARLINK-6354,1 56784U 23078T   24135.91369296  .00008432  00000-0  71396-3 0  9996,2 56784  69.9999 198.1771 0002394 288.7127  71.3773 14.98311898 53749,6950.249,96.108,573.778,570.45,0.0
56784.0,STARLINK-6354,PAYLOAD,2024-05-15 04:20:14,14.98348658,0.0002619,69.9994,197.5045,283.5185,76.5682,0.00019468,2.232e-05,0.0,0 STARLINK-6354,1 56784U 23078T   24136.18072087  .00002232  00000-0  19468-3 0  9999,2 56784  69.9994 197.5045 0002619 283.5185  76.5682 14.98348658 54042,6950.135,96.106,573.82,570.18,0.0
56784.0,STARLINK-6354,PAYLOAD,2024-05-15 12:20:53,14.98358294,0.0002583,69.9996,196.6625,282.5413,77.5457,0.0001949,2.235e-05,0.0,0 STARLINK-6354,1 56784U 23078T   24136.51450958  .00002235  00000-0  19490-3 0  9991,2 56784  69.9996 196.6625 0002583 282.5413  77.5457 14.98358294 54094,6950.105,96.105,573.766,570.175,0.0
56784.0,STARLINK-6354,PAYLOAD,2024-05-15 13:57:01,14.98359843,0.0002576,69.9996,196.4942,282.7048,77.3823,0.00020744,2.385e-05,0.0,0 STARLINK-6354,1 56784U 23078T   24136.58126701  .00002385  00000-0  20744-3 0  9994,2 56784  69.9996 196.4942 0002576 282.7048  77.3823 14.98359843 53840,6950.101,96.105,573.756,570.175,0.0
56784.0,STARLINK-6354,PAYLOAD,2024-05-16 04:22:14,14.9834169,0.0001741,70.004,194.9808,284.0249,76.0716,2.0003e-05,1.46e-06,0.0,0 STARLINK-6354,1 56784U 23078T   24137.18211640  .00000146  00000-0  20003-4 0  9990,2 56784  70.0040 194.9808 0001741 284.0249  76.0716 14.98341690 54195,6950.157,96.106,573.232,570.812,0.0
56784.0,STARLINK-6354,PAYLOAD,2024-05-16 12:22:55,14.98343709,0.0002627,69.9996,194.1378,280.8956,79.1907,-0.00011089,-1.416e-05,0.0,0 STARLINK-6354,1 56784U 23078T   24137.51591481 -.00001416  00000-0 -11089-3 0  9997,2 56784  69.9996 194.1378 0002627 280.8956  79.1907 14.98343709 53984,6950.15,96.106,573.841,570.19,0.0
56784.0,STARLINK-6354,PAYLOAD,2024-05-17 04:24:15,14.98344815,0.0002567,69.9996,192.4548,276.0584,84.0283,-0.00016242,-2.031e-05,0.0,0 STARLINK-6354,1 56784U 23078T   24138.18350874 -.00002031  00000-0 -16242-3 0  9990,2 56784  69.9996 192.4548 0002567 276.0584  84.0283 14.98344815 54343,6950.147,96.106,573.796,570.228,0.0
56784.0,STARLINK-6354,PAYLOAD,2024-05-17 12:24:55,14.98345619,0.0002584,69.9999,191.6139,280.1387,79.9481,-0.00015699,-1.966e-05,0.0,0 STARLINK-6354,1 56784U 23078T   24138.51730524 -.00001966  00000-0 -15699-3 0  9992,2 56784  69.9999 191.6139 0002584 280.1387  79.9481 14.98345619 54132,6950.145,96.106,573.806,570.214,0.0
56784.0,STARLINK-6354,PAYLOAD,2024-05-17 20:25:35,14.98343723,0.0002593,69.9997,190.7711,276.956,83.1304,-0.00020633,-2.555e-05,0.0,0 STARLINK-6354,1 56784U 23078T   24138.85110440 -.00002555  00000-0 -20633-3 0  9997,2 56784  69.9997 190.7711 0002593 276.9560  83.1304 14.98343723 54182,6950.15,96.106,573.818,570.213,0.0
56784.0,STARLINK-6354,PAYLOAD,2024-05-18 04:26:16,14.98328418,0.0002408,70.0,189.9304,269.1542,90.9341,-3.1587e-05,-4.7e-06,0.0,0 STARLINK-6354,1 56784U 23078T   24139.18490883 -.00000470  00000-0 -31587-4 0  9991,2 56784  70.0000 189.9304 0002408 269.1542  90.9341 14.98328418 54492,6950.198,96.107,573.736,570.389,0.0
56784.0,STARLINK-6354,PAYLOAD,2024-05-18 12:26:56,14.98329569,0.0002389,70.0002,189.089,268.5805,91.5081,-1.4967e-05,-2.71e-06,0.0,0 STARLINK-6354,1 56784U 23078T   24139.51870770 -.00000271  00000-0 -14967-4 0  9997,2 56784  70.0002 189.0890 0002389 268.5805  91.5081 14.98329569 54281,6950.194,96.107,573.72,570.399,0.0
56784.0,STARLINK-6354,PAYLOAD,2024-05-18 20:27:37,14.98321556,0.0002274,70.0005,188.2466,272.4449,87.6449,-0.00013879,-1.748e-05,0.0,0 STARLINK-6354,1 56784U 23078T   24139.85251737 -.00001748  00000-0 -13879-3 0  9990,2 56784  70.0005 188.2466 0002274 272.4449  87.6449 14.98321556 54591,6950.219,96.108,573.664,570.504,0.0
56784.0,STARLINK-6354,PAYLOAD,2024-05-19 14:05:06,14.98315762,0.0002692,69.9998,186.3953,267.617,92.4681,-0.00012396,-1.571e-05,0.0,0 STARLINK-6354,1 56784U 23078T   24140.58688429 -.00001571  00000-0 -12396-3 0  9991,2 56784  69.9998 186.3953 0002692 267.6170  92.4681 14.98315762 54448,6950.237,96.108,573.973,570.231,0.0
56784.0,STARLINK-6354,PAYLOAD,2024-05-20 04:30:18,14.98328159,0.000292,69.9996,184.8812,269.549,90.5335,7.6292e-05,8.17e-06,0.0,0 STARLINK-6354,1 56784U 23078T   24141.18771288  .00000817  00000-0  76292-4 0  9990,2 56784  69.9996 184.8812 0002920 269.5490  90.5335 14.98328159 54790,6950.199,96.107,574.093,570.034,0.0
56784.0,STARLINK-6354,PAYLOAD,2024-05-20 12:30:58,14.98332158,0.0002923,69.9995,184.0395,268.6701,91.4123,9.3131e-05,1.018e-05,0.0,0 STARLINK-6354,1 56784U 23078T   24141.52151015  .00001018  00000-0  93131-4 0  9993,2 56784  69.9995 184.0395 0002923 268.6701  91.4123 14.98332158 54581,6950.186,96.107,574.083,570.02,0.0
56784.0,STARLINK-6354,PAYLOAD,2024-05-21 04:32:19,14.98322888,0.0003166,69.9992,182.3561,268.1825,91.8972,0.00017912,2.044e-05,0.0,0 STARLINK-6354,1 56784U 23078T   24142.18911373  .00002044  00000-0  17912-3 0  9999,2 56784  69.9992 182.3561 0003166 268.1825  91.8972 14.98322888 54941,6950.215,96.107,574.28,569.879,0.0
56784.0,STARLINK-6354,PAYLOAD,2024-05-21 12:32:59,14.98327306,0.0003202,69.9992,181.5145,267.4903,92.5889,0.00016589,1.887e-05,0.0,0 STARLINK-6354,1 56784U 23078T   24142.52291199  .00001887  00000-0  16589-3 0  9997,2 56784  69.9992 181.5145 0003202 267.4903  92.5889 14.98327306 54732,6950.201,96.107,574.292,569.841,0.0
56784.0,STARLINK-6354,PAYLOAD,2024-05-22 04:34:19,14.98337896,0.0003102,69.9995,179.8316,264.874,95.2065,3.3505e-07,-8.9e-07,0.0,0 STARLINK-6354,1 56784U 23078T   24143.19050872 -.00000089  00000-0  33505-6 0  9996,2 56784  69.9995 179.8316 0003102 264.8740  95.2065 14.98337896 55095,6950.168,96.106,574.189,569.878,0.0
56784.0,STARLINK-6354,PAYLOAD,2024-05-22 10:58:52,14.98338186,0.0003092,69.9995,179.1583,264.64,95.4406,5.6122e-06,-2.6e-07,0.0,0 STARLINK-6354,1 56784U 23078T   24143.45754692 -.00000026  00000-0  56122-5 0  9996,2 56784  69.9995 179.1583 0003092 264.6400  95.4406 14.98338186 54872,6950.168,96.106,574.182,569.884,0.0
56784.0,STARLINK-6354,PAYLOAD,2024-05-23 04:36:21,14.98330714,0.0003026,69.9994,177.3055,265.7265,94.3548,-3.2521e-05,-4.81e-06,0.0,0 STARLINK-6354,1 56784U 23078T   24144.19191023 -.00000481  00000-0 -32521-4 0  9993,2 56784  69.9994 177.3055 0003026 265.7265  94.3548 14.98330714 55249,6950.191,96.107,574.159,569.953,0.0
56784.0,STARLINK-6354,PAYLOAD,2024-05-23 12:37:01,14.98329032,0.0003064,69.9993,176.4641,265.6905,94.3903,-5.163e-05,-7.09e-06,0.0,0 STARLINK-6354,1 56784U 23078T   24144.52571163 -.00000709  00000-0 -51630-4 0  9992,2 56784  69.9993 176.4641 0003064 265.6905  94.3903 14.98329032 55034,6950.196,96.107,574.19,569.931,0.0
56784.0,STARLINK-6354,PAYLOAD,2024-05-24 04:38:21,14.9833406,0.0003206,69.9988,174.7802,269.1255,90.9537,-2.7321e-05,-4.19e-06,0.0,0 STARLINK-6354,1 56784U 23078T   24145.19330644 -.00000419  00000-0 -27321-4 0  9991,2 56784  69.9988 174.7802 0003206 269.1255  90.9537 14.98334060 55394,6950.18,96.107,574.274,569.817,0.0
